{
  "type": "FeatureCollection",
  "features": [
    {
      "type": "Feature",
      "properties": {
        "norad_id": 66754,
        "name": "ICEYE-X61",
        "group": "last-30-days",
        "lat": 57.23756908234936,
        "lon": 61.44816153245209,
        "alt_km": 507.60000118260905,
        "timestamp": "2025-12-27T15:27:09.830227+00:00",
        "meta_object_name": "ICEYE-X61",
        "meta_object_id": "2025-276CS",
        "meta_epoch": "2025-12-27T05:42:18.416160",
        "meta_mean_motion": 15.17891103,
        "meta_eccentricity": 0.00026698,
        "meta_inclination": 97.4398,
        "meta_ra_of_asc_node": 72.7649,
        "meta_arg_of_pericenter": 177.636,
        "meta_mean_anomaly": 182.4887,
        "meta_ephemeris_type": 0,
        "meta_classification_type": "U",
        "meta_norad_cat_id": 66754,
        "meta_element_set_no": 999,
        "meta_rev_at_epoch": 432,
        "meta_bstar": 0.00047235309,
        "meta_mean_motion_dot": 9.513e-05,
        "meta_mean_motion_ddot": 0,
        "tle_line1": "1 66754U 25276CS  25361.23771315  .00009513  00000+0  47235-3 0  9997",
        "tle_line2": "2 66754  97.4398  72.7649 0002669 177.6360 182.4887 15.17891103  4321"
      },
      "geometry": {
        "type": "Point",
        "coordinates": [
          61.44816153245209,
          57.23756908234936
        ]
      }
    },
    {
      "type": "Feature",
      "properties": {
        "norad_id": 66755,
        "name": "ICEYE-X62",
        "group": "last-30-days",
        "lat": 30.981473640368343,
        "lon": 68.65223106982255,
        "alt_km": 512.166680301626,
        "timestamp": "2025-12-27T15:27:09.830239+00:00",
        "meta_object_name": "ICEYE-X62",
        "meta_object_id": "2025-276CT",
        "meta_epoch": "2025-12-27T02:39:22.544640",
        "meta_mean_motion": 15.17662695,
        "meta_eccentricity": 0.00013116,
        "meta_inclination": 97.44,
        "meta_ra_of_asc_node": 72.6285,
        "meta_arg_of_pericenter": 203.2897,
        "meta_mean_anomaly": 156.8277,
        "meta_ephemeris_type": 0,
        "meta_classification_type": "U",
        "meta_norad_cat_id": 66755,
        "meta_element_set_no": 999,
        "meta_rev_at_epoch": 430,
        "meta_bstar": 0.00032466922,
        "meta_mean_motion_dot": 6.472e-05,
        "meta_mean_motion_ddot": 0,
        "tle_line1": "1 66755U 25276CT  25361.11067760  .00006472  00000+0  32467-3 0  9999",
        "tle_line2": "2 66755  97.4400  72.6285 0001311 203.2897 156.8277 15.17662695  4303"
      },
      "geometry": {
        "type": "Point",
        "coordinates": [
          68.65223106982255,
          30.981473640368343
        ]
      }
    },
    {
      "type": "Feature",
      "properties": {
        "norad_id": 66756,
        "name": "TRANSPORTER-15CU",
        "group": "last-30-days",
        "lat": 64.58186710721262,
        "lon": 57.20930545713,
        "alt_km": 505.4206129861859,
        "timestamp": "2025-12-27T15:27:09.830254+00:00",
        "meta_object_name": "TRANSPORTER-15CU",
        "meta_object_id": "2025-276CU",
        "meta_epoch": "2025-12-27T05:40:20.777376",
        "meta_mean_motion": 15.18000439,
        "meta_eccentricity": 0.00018831,
        "meta_inclination": 97.4406,
        "meta_ra_of_asc_node": 72.771,
        "meta_arg_of_pericenter": 149.7771,
        "meta_mean_anomaly": 210.3572,
        "meta_ephemeris_type": 0,
        "meta_classification_type": "U",
        "meta_norad_cat_id": 66756,
        "meta_element_set_no": 999,
        "meta_rev_at_epoch": 432,
        "meta_bstar": 0.00051393823,
        "meta_mean_motion_dot": 0.0001039,
        "meta_mean_motion_ddot": 0,
        "tle_line1": "1 66756U 25276CU  25361.23635159  .00010390  00000+0  51394-3 0  9990",
        "tle_line2": "2 66756  97.4406  72.7710 0001883 149.7771 210.3572 15.18000439  4322"
      },
      "geometry": {
        "type": "Point",
        "coordinates": [
          57.20930545713,
          64.58186710721262
        ]
      }
    },
    {
      "type": "Feature",
      "properties": {
        "norad_id": 66757,
        "name": "TRANSPORTER-15CV",
        "group": "last-30-days",
        "lat": 72.63029626032917,
        "lon": 48.48939013950143,
        "alt_km": 507.87378461253775,
        "timestamp": "2025-12-27T15:27:09.830265+00:00",
        "meta_object_name": "TRANSPORTER-15CV",
        "meta_object_id": "2025-276CV",
        "meta_epoch": "2025-12-26T23:18:11.598048",
        "meta_mean_motion": 15.17836762,
        "meta_eccentricity": 0.00039586,
        "meta_inclination": 97.4382,
        "meta_ra_of_asc_node": 72.5157,
        "meta_arg_of_pericenter": 309.2672,
        "meta_mean_anomaly": 50.821,
        "meta_ephemeris_type": 0,
        "meta_classification_type": "U",
        "meta_norad_cat_id": 66757,
        "meta_element_set_no": 999,
        "meta_rev_at_epoch": 428,
        "meta_bstar": -0.010277728,
        "meta_mean_motion_dot": -0.00202306,
        "meta_mean_motion_ddot": 0,
        "tle_line1": "1 66757U 25276CV  25360.97096757 -.00202306  00000+0 -10278-1 0  9992",
        "tle_line2": "2 66757  97.4382  72.5157 0003958 309.2672  50.8210 15.17836762  4283"
      },
      "geometry": {
        "type": "Point",
        "coordinates": [
          48.48939013950143,
          72.63029626032917
        ]
      }
    },
    {
      "type": "Feature",
      "properties": {
        "norad_id": 66758,
        "name": "TRANSPORTER-15CW",
        "group": "last-30-days",
        "lat": 75.07328249521659,
        "lon": 43.821047014592494,
        "alt_km": 503.71659649365483,
        "timestamp": "2025-12-27T15:27:09.830275+00:00",
        "meta_object_name": "TRANSPORTER-15CW",
        "meta_object_id": "2025-276CW",
        "meta_epoch": "2025-12-27T05:37:24.064320",
        "meta_mean_motion": 15.18134776,
        "meta_eccentricity": 0.00015767,
        "meta_inclination": 97.4385,
        "meta_ra_of_asc_node": 72.7659,
        "meta_arg_of_pericenter": 134.1168,
        "meta_mean_anomaly": 226.0196,
        "meta_ephemeris_type": 0,
        "meta_classification_type": "U",
        "meta_norad_cat_id": 66758,
        "meta_element_set_no": 999,
        "meta_rev_at_epoch": 432,
        "meta_bstar": 0.00053379645,
        "meta_mean_motion_dot": 0.00010836,
        "meta_mean_motion_ddot": 0,
        "tle_line1": "1 66758U 25276CW  25361.23430630  .00010836  00000+0  53380-3 0  9991",
        "tle_line2": "2 66758  97.4385  72.7659 0001576 134.1168 226.0196 15.18134776  4327"
      },
      "geometry": {
        "type": "Point",
        "coordinates": [
          43.821047014592494,
          75.07328249521659
        ]
      }
    },
    {
      "type": "Feature",
      "properties": {
        "norad_id": 66759,
        "name": "TRANSPORTER-15CX",
        "group": "last-30-days",
        "lat": 82.42241064805198,
        "lon": -5.944534934377493,
        "alt_km": 502.5615241850446,
        "timestamp": "2025-12-27T15:27:09.830285+00:00",
        "meta_object_name": "TRANSPORTER-15CX",
        "meta_object_id": "2025-276CX",
        "meta_epoch": "2025-12-27T05:34:25.853088",
        "meta_mean_motion": 15.1830244,
        "meta_eccentricity": 0.00019174,
        "meta_inclination": 97.4377,
        "meta_ra_of_asc_node": 72.7668,
        "meta_arg_of_pericenter": 139.0227,
        "meta_mean_anomaly": 221.1151,
        "meta_ephemeris_type": 0,
        "meta_classification_type": "U",
        "meta_norad_cat_id": 66759,
        "meta_element_set_no": 999,
        "meta_rev_at_epoch": 432,
        "meta_bstar": 0.0015458834,
        "meta_mean_motion_dot": 0.00031751,
        "meta_mean_motion_ddot": 0,
        "tle_line1": "1 66759U 25276CX  25361.23224367  .00031751  00000+0  15459-2 0  9993",
        "tle_line2": "2 66759  97.4377  72.7668 0001917 139.0227 221.1151 15.18302440  4320"
      },
      "geometry": {
        "type": "Point",
        "coordinates": [
          -5.944534934377493,
          82.42241064805198
        ]
      }
    },
    {
      "type": "Feature",
      "properties": {
        "norad_id": 66760,
        "name": "TRANSPORTER-15CY",
        "group": "last-30-days",
        "lat": 82.55545293826323,
        "lon": -17.361099407196587,
        "alt_km": 502.50843805611476,
        "timestamp": "2025-12-27T15:27:09.830296+00:00",
        "meta_object_name": "TRANSPORTER-15CY",
        "meta_object_id": "2025-276CY",
        "meta_epoch": "2025-12-27T03:59:06.652608",
        "meta_mean_motion": 15.18249139,
        "meta_eccentricity": 0.00017378,
        "meta_inclination": 97.4391,
        "meta_ra_of_asc_node": 72.706,
        "meta_arg_of_pericenter": 112.5269,
        "meta_mean_anomaly": 247.6149,
        "meta_ephemeris_type": 0,
        "meta_classification_type": "U",
        "meta_norad_cat_id": 66760,
        "meta_element_set_no": 999,
        "meta_rev_at_epoch": 431,
        "meta_bstar": 0.00058556364,
        "meta_mean_motion_dot": 0.00011935,
        "meta_mean_motion_ddot": 0,
        "tle_line1": "1 66760U 25276CY  25361.16604922  .00011935  00000+0  58556-3 0  9994",
        "tle_line2": "2 66760  97.4391  72.7060 0001737 112.5269 247.6149 15.18249139  4310"
      },
      "geometry": {
        "type": "Point",
        "coordinates": [
          -17.361099407196587,
          82.55545293826323
        ]
      }
    }
  ]
}